[{"OBJECT_NAME":"FENGYUN 1C DEB","OBJECT_ID":"1999-025AVA","EPOCH":"2026-04-05T04:28:19.335360","MEAN_MOTION":14.1882766,"ECCENTRICITY":0.0053756,"INCLINATION":98.9007,"RA_OF_ASC_NODE":171.1222,"ARG_OF_PERICENTER":92.3301,"MEAN_ANOMALY":322.9351,"EPHEMERIS_TYPE":0,"CLASSIFICATION_TYPE":"U","NORAD_CAT_ID":30816,"ELEMENT_SET_NO":999,"REV_AT_EPOCH":98002,"BSTAR":0.0018974106,"MEAN_MOTION_DOT":3.961e-5,"MEAN_MOTION_DDOT":0},{"OBJECT_NAME":"FENGYUN 1C DEB","OBJECT_ID":"1999-025AVB","EPOCH":"2026-04-02T22:41:22.898688","MEAN_MOTION":14.00808256,"ECCENTRICITY":0.0057975,"INCLINATION":98.7873,"RA_OF_ASC_NODE":83.8949,"ARG_OF_PERICENTER":296.5796,"MEAN_ANOMALY":62.9435,"EPHEMERIS_TYPE":0,"CLASSIFICATION_TYPE":"U","NORAD_CAT_ID":30817,"ELEMENT_SET_NO":999,"REV_AT_EPOCH":97466,"BSTAR":0.00035301766,"MEAN_MOTION_DOT":4.92e-6,"MEAN_MOTION_DDOT":0},{"OBJECT_NAME":"FENGYUN 1C DEB","OBJECT_ID":"1999-025AVE","EPOCH":"2026-04-04T13:23:31.981056","MEAN_MOTION":14.22434122,"ECCENTRICITY":0.00515061,"INCLINATION":98.6708,"RA_OF_ASC_NODE":193.9817,"ARG_OF_PERICENTER":217.1063,"MEAN_ANOMALY":158.48,"EPHEMERIS_TYPE":0,"CLASSIFICATION_TYPE":"U","NORAD_CAT_ID":30820,"ELEMENT_SET_NO":999,"REV_AT_EPOCH":98027,"BSTAR":0.002827621,"MEAN_MOTION_DOT":6.347e-5,"MEAN_MOTION_DDOT":0},{"OBJECT_NAME":"FENGYUN 1C DEB","OBJECT_ID":"1999-025AVF","EPOCH":"2026-04-05T09:36:22.361184","MEAN_MOTION":14.50370731,"ECCENTRICITY":0.00852504,"INCLINATION":99.1174,"RA_OF_ASC_NODE":252.1571,"ARG_OF_PERICENTER":225.7017,"MEAN_ANOMALY":162.4859,"EPHEMERIS_TYPE":0,"CLASSIFICATION_TYPE":"U","NORAD_CAT_ID":30821,"ELEMENT_SET_NO":999,"REV_AT_EPOCH":436,"BSTAR":0.00099822698,"MEAN_MOTION_DOT":4.028e-5,"MEAN_MOTION_DDOT":0},{"OBJECT_NAME":"FENGYUN 1C DEB","OBJECT_ID":"1999-025AVG","EPOCH":"2026-04-05T01:14:13.352352","MEAN_MOTION":14.1150123,"ECCENTRICITY":0.00728624,"INCLINATION":98.7219,"RA_OF_ASC_NODE":125.0222,"ARG_OF_PERICENTER":324.2966,"MEAN_ANOMALY":63.0022,"EPHEMERIS_TYPE":0,"CLASSIFICATION_TYPE":"U","NORAD_CAT_ID":30822,"ELEMENT_SET_NO":999,"REV_AT_EPOCH":98300,"BSTAR":0.00035878898,"MEAN_MOTION_DOT":6.24e-6,"MEAN_MOTION_DDOT":0},{"OBJECT_NAME":"FENGYUN 1C DEB","OBJECT_ID":"1999-025AVH","EPOCH":"2026-04-04T21:46:55.062336","MEAN_MOTION":14.02716147,"ECCENTRICITY":0.01343772,"INCLINATION":98.7784,"RA_OF_ASC_NODE":236.7567,"ARG_OF_PERICENTER":128.0379,"MEAN_ANOMALY":3.2784,"EPHEMERIS_TYPE":0,"CLASSIFICATION_TYPE":"U","NORAD_CAT_ID":30823,"ELEMENT_SET_NO":999,"REV_AT_EPOCH":97620,"BSTAR":0.000691525,"MEAN_MOTION_DOT":1.115e-5,"MEAN_MOTION_DDOT":0},{"OBJECT_NAME":"FENGYUN 1C DEB","OBJECT_ID":"1999-025AVL","EPOCH":"2026-04-05T13:12:45.556128","MEAN_MOTION":14.83684545,"ECCENTRICITY":0.0141656,"INCLINATION":98.8618,"RA_OF_ASC_NODE":307.9712,"ARG_OF_PERICENTER":355.5947,"MEAN_ANOMALY":33.2708,"EPHEMERIS_TYPE":0,"CLASSIFICATION_TYPE":"U","NORAD_CAT_ID":30826,"ELEMENT_SET_NO":999,"REV_AT_EPOCH":1973,"BSTAR":0.00054621189,"MEAN_MOTION_DOT":5.317e-5,"MEAN_MOTION_DDOT":0},{"OBJECT_NAME":"FENGYUN 1C DEB","OBJECT_ID":"1999-025AVM","EPOCH":"2026-04-02T22:47:40.562592","MEAN_MOTION":14.39966169,"ECCENTRICITY":0.00417664,"INCLINATION":99.0123,"RA_OF_ASC_NODE":88.8783,"ARG_OF_PERICENTER":210.5333,"MEAN_ANOMALY":149.3421,"EPHEMERIS_TYPE":0,"CLASSIFICATION_TYPE":"U","NORAD_CAT_ID":30827,"ELEMENT_SET_NO":999,"REV_AT_EPOCH":98148,"BSTAR":0.0037439272,"MEAN_MOTION_DOT":0.00011877,"MEAN_MOTION_DDOT":0},{"OBJECT_NAME":"FENGYUN 1C DEB","OBJECT_ID":"1999-025AVN","EPOCH":"2026-04-05T06:10:51.235680","MEAN_MOTION":14.8003172,"ECCENTRICITY":0.0200243,"INCLINATION":98.3773,"RA_OF_ASC_NODE":211.8843,"ARG_OF_PERICENTER":175.5887,"MEAN_ANOMALY":215.7667,"EPHEMERIS_TYPE":0,"CLASSIFICATION_TYPE":"U","NORAD_CAT_ID":30828,"ELEMENT_SET_NO":999,"REV_AT_EPOCH":319,"BSTAR":0.002156,"MEAN_MOTION_DOT":0.00023008,"MEAN_MOTION_DDOT":0},{"OBJECT_NAME":"FENGYUN 1C DEB","OBJECT_ID":"1999-025AVP","EPOCH":"2026-03-31T21:56:36.363264","MEAN_MOTION":14.08830386,"ECCENTRICITY":0.00363364,"INCLINATION":98.7859,"RA_OF_ASC_NODE":85.723,"ARG_OF_PERICENTER":26.8752,"MEAN_ANOMALY":333.429,"EPHEMERIS_TYPE":0,"CLASSIFICATION_TYPE":"U","NORAD_CAT_ID":30829,"ELEMENT_SET_NO":999,"REV_AT_EPOCH":97970,"BSTAR":0.0005478495,"MEAN_MOTION_DOT":9.09e-6,"MEAN_MOTION_DDOT":0},{"OBJECT_NAME":"FENGYUN 1C DEB","OBJECT_ID":"1999-025AVQ","EPOCH":"2026-04-05T12:15:40.380192","MEAN_MOTION":14.12362975,"ECCENTRICITY":0.00299638,"INCLINATION":98.7414,"RA_OF_ASC_NODE":86.0225,"ARG_OF_PERICENTER":225.6883,"MEAN_ANOMALY":258.5871,"EPHEMERIS_TYPE":0,"CLASSIFICATION_TYPE":"U","NORAD_CAT_ID":30830,"ELEMENT_SET_NO":999,"REV_AT_EPOCH":98205,"BSTAR":0.0003113327,"MEAN_MOTION_DOT":5.33e-6,"MEAN_MOTION_DDOT":0},{"OBJECT_NAME":"FENGYUN 1C DEB","OBJECT_ID":"1999-025AVR","EPOCH":"2026-04-05T06:27:03.053376","MEAN_MOTION":14.31413177,"ECCENTRICITY":0.0055625,"INCLINATION":99.3432,"RA_OF_ASC_NODE":261.4368,"ARG_OF_PERICENTER":67.0769,"MEAN_ANOMALY":293.627,"EPHEMERIS_TYPE":0,"CLASSIFICATION_TYPE":"U","NORAD_CAT_ID":30831,"ELEMENT_SET_NO":999,"REV_AT_EPOCH":66874,"BSTAR":0.00041698,"MEAN_MOTION_DOT":1.075e-5,"MEAN_MOTION_DDOT":0},{"OBJECT_NAME":"FENGYUN 1C DEB","OBJECT_ID":"1999-025AVT","EPOCH":"2026-04-05T04:28:48.262944","MEAN_MOTION":14.27081459,"ECCENTRICITY":0.00324572,"INCLINATION":99.8586,"RA_OF_ASC_NODE":260.4335,"ARG_OF_PERICENTER":220.6248,"MEAN_ANOMALY":139.2506,"EPHEMERIS_TYPE":0,"CLASSIFICATION_TYPE":"U","NORAD_CAT_ID":30833,"ELEMENT_SET_NO":999,"REV_AT_EPOCH":66029,"BSTAR":0.00054834911,"MEAN_MOTION_DOT":1.289e-5,"MEAN_MOTION_DDOT":0},{"OBJECT_NAME":"FENGYUN 1C DEB","OBJECT_ID":"1999-025AVW","EPOCH":"2026-04-05T08:45:07.949376","MEAN_MOTION":14.12096633,"ECCENTRICITY":0.0024927,"INCLINATION":98.7293,"RA_OF_ASC_NODE":130.1352,"ARG_OF_PERICENTER":282.7883,"MEAN_ANOMALY":77.0504,"EPHEMERIS_TYPE":0,"CLASSIFICATION_TYPE":"U","NORAD_CAT_ID":30836,"ELEMENT_SET_NO":999,"REV_AT_EPOCH":63607,"BSTAR":0.00040955118,"MEAN_MOTION_DOT":7.1e-6,"MEAN_MOTION_DDOT":0},{"OBJECT_NAME":"FENGYUN 1C DEB","OBJECT_ID":"1999-025AVX","EPOCH":"2026-04-05T11:07:24.138048","MEAN_MOTION":14.14690645,"ECCENTRICITY":0.0032426,"INCLINATION":98.6922,"RA_OF_ASC_NODE":83.6032,"ARG_OF_PERICENTER":167.6839,"MEAN_ANOMALY":356.0999,"EPHEMERIS_TYPE":0,"CLASSIFICATION_TYPE":"U","NORAD_CAT_ID":30837,"ELEMENT_SET_NO":999,"REV_AT_EPOCH":98426,"BSTAR":0.00037715,"MEAN_MOTION_DOT":6.87e-6,"MEAN_MOTION_DDOT":0},{"OBJECT_NAME":"FENGYUN 1C DEB","OBJECT_ID":"1999-025AVY","EPOCH":"2026-04-05T12:00:24.661152","MEAN_MOTION":14.50019181,"ECCENTRICITY":0.00339813,"INCLINATION":99.0436,"RA_OF_ASC_NODE":22.424,"ARG_OF_PERICENTER":176.8428,"MEAN_ANOMALY":183.2985,"EPHEMERIS_TYPE":0,"CLASSIFICATION_TYPE":"U","NORAD_CAT_ID":30838,"ELEMENT_SET_NO":999,"REV_AT_EPOCH":98961,"BSTAR":0.0022161903,"MEAN_MOTION_DOT":8.608e-5,"MEAN_MOTION_DDOT":0}]
